#aV2022  5  5  0  0  0.00000000     288 DD+AD WGS84 FIT  NGA
## 2208 345600.00000000   300.00000000 59704 0.0000000000000
+   32     1  2  3  4  5  6  7  8  9 10 11 12 13 14 15 16 17
+         18 19 20 21 22 23 24 25 26 27 28 29 30 31 32  0  0
+          0  0  0  0  0  0  0  0  0  0  0  0  0  0  0  0  0
+          0  0  0  0  0  0  0  0  0  0  0  0  0  0  0  0  0
+          0  0  0  0  0  0  0  0  0  0  0  0  0  0  0  0  0
++         2  2  2  2  2  2  2  2  2  2  2  2  2  2  2  2  2
++         2  2  2  2  2  2  2  2  2  2  2  2  2  2  2  0  0
++         0  0  0  0  0  0  0  0  0  0  0  0  0  0  0  0  0
++         0  0  0  0  0  0  0  0  0  0  0  0  0  0  0  0  0
++         0  0  0  0  0  0  0  0  0  0  0  0  0  0  0  0  0
%c cc cc ccc ccc cccc cccc cccc cccc ccccc ccccc ccccc ccccc
%c cc cc ccc ccc cccc cccc cccc cccc ccccc ccccc ccccc ccccc
%f  0.0000000  0.000000000  0.00000000000  0.000000000000000
%f  0.0000000  0.000000000  0.00000000000  0.000000000000000
%i    0    0    0    0      0      0      0      0         0
%i    0    0    0    0      0      0      0      0         0
/*      NGA, ST. LOUIS,MO.                                  
/*   EPHEMERIS COMPUTED FROM 2 DAYS OF DATA                 
/*   EPOCHA v7 SMOOTHER                                     
/*   G2139 IERS2010 SATIGS SATAPC                           
*  2022  5  5 20 40  0.00000000
P  1  22426.272156  14183.749641   3112.371697    369.473312                    
V  1   2423.171865   3890.289553 -31791.062774     -0.084342                    
P  2  -9281.431705 -19094.069822  16520.034475   -653.277658                    
V  2  17764.310189   8940.016500  21305.341756     -0.000073                    
P  3  12958.669711  10549.688026  20565.279729   -233.453219                    
V  3  -3529.559946  26064.582978 -10975.674232     -0.141632                    
P  4  20696.373835   3868.535549  16251.263532   -169.954768                    
V  4 -18395.172884   9415.642109  21113.658152      0.034238                    
P  5  -6357.161115 -23244.391503 -11161.483605    -80.782395                    
V  5   3374.185655 -13795.470234  27356.011572     -0.013515                    
P  6   6207.281788 -13514.780410  22063.262849    292.204567                    
V  6  22557.051463  16238.160412   3689.245070      0.143068                    
P  7  21138.867312   1436.406427 -15914.839804    321.717449                    
V  7  15617.545779  13839.098697  20966.634539      0.005766                    
P  8  13209.633855   9857.874852 -20937.832296    -66.781421                    
V  8 -23630.028792  11811.452368  -9017.303783     -0.016410                    
P  9  24802.739026  -5668.029143   7611.360708   -338.931341                    
V  9  -7627.368281   6707.917493  29567.573398      0.027583                    
P 10 -11485.972907  19202.735786 -13933.656501   -403.551566                    
V 10   -268.307275 -18154.158791 -24822.163041     -0.139242                    
P 11  -8033.486000 -20214.483123  15246.665755    -28.921740                    
V 11  16247.869799  10701.224045  22728.299880      0.054018                    
P 12 -10421.061256 -15273.227324  18842.781336   -210.936327                    
V 12   5520.720358 -23832.438584 -15921.529832     -0.058345                    
P 13  -3383.078988 -14753.569493 -21971.891102    306.332259                    
V 13  26458.190623  -7562.470319   1178.524047      0.067377                    
P 14  13035.888277 -17931.114319 -14567.611572   -106.809006                    
V 14   -334.859541  18688.234778 -23394.038907     -0.020404                    
P 15 -15102.434692  -8726.326996 -20515.932756    -63.558346                    
V 15  21021.814119 -13897.881954  -9445.547033      0.029645                    
P 16    394.297536  25261.471643  -7658.026532   -498.243721                    
V 16  -4478.779335   8771.229600  30209.350532     -0.034564                    
P 17  20608.341265 -14307.856117   9221.104437    609.028907                    
V 17  11034.583313  -2075.795020 -29208.469372      0.047044                    
P 18 -20913.609841  -1837.612936 -16340.825298    177.885334                    
V 18 -15522.668179 -13738.071583  21313.368888     -0.099357                    
P 19  15484.198862 -15411.758712  14697.993558    153.461183                    
V 19  18830.192002  -4076.372587 -23890.235632      0.049902                    
P 20  -1624.448981 -26636.083861   -304.958122    515.505608                    
V 20   3160.022578   -555.957428  31200.211242     -0.001812                    
P 21  19636.458335  17081.390515  -6204.423413    160.929347                    
V 21  -8504.325585  -2521.960504 -30007.662907      0.002039                    
P 22 -12111.918550  16784.157651  16956.641140    254.377524                    
V 22 -20236.648567   5193.946207 -20266.965046      0.061053                    
P 23 -14693.943162   8645.015296 -20349.881114    -19.894856                    
V 23    975.775375 -25823.210720 -11777.704333     -0.026059                    
P 24 -22187.160076 -14953.573730  -1582.865870    246.132018                    
V 24   3106.012960  -1929.589932 -30813.658499     -0.063086                    
P 25 -15215.226167    193.320405  21468.883007    320.939649                    
V 25   2403.667901 -27875.835417   2195.554344      0.048611                    
P 26  -4622.070708  25564.694439   4581.688145    203.580529                    
V 26  -3436.096407  -6172.559291  30706.038780      0.026533                    
P 27    188.959058  15908.402827 -21412.488729    197.697106                    
V 27 -24712.592471  10229.812417   7842.092486      0.070142                    
P 28   9224.598638 -24092.488153  -6287.893803    362.726947                    
V 28    637.515243   8895.053747 -30432.121509     -0.058403                    
P 29 -25092.501611   3183.694895   8161.220006   -510.532991                    
V 29   9116.736596  -5375.685219  29870.597682     -0.040254                    
P 30  15170.423758  -7434.119303 -20465.596538   -526.726836                    
V 30  20382.708576  16496.635650   8828.621606     -0.015294                    
P 31  -4469.737608  15304.393741  21042.745890   -176.379987                    
V 31 -22101.439464 -15742.474887   7170.539079     -0.015987                    
P 32 -18192.951542  16283.566140  10363.034204   -120.466638                    
V 32 -12957.109469   2954.621975 -27962.641375     -0.084934                    
EOF
